STARLINK-1759           
1 46340U 20062R   23232.35492960  .00012863  00000+0  88100-3 0  9996
2 46340  53.0535 242.0422 0001476  82.3823 277.7334 15.06392356163968
STARLINK-1760           
1 46341U 20062S   23233.35562724  .00001908  00000+0  14690-3 0  9995
2 46341  53.0542 217.5365 0001312 101.0346 259.0791 15.06410942164400
STARLINK-1762           
1 46342U 20062T   23233.33536873  .00004284  00000+0  30626-3 0  9997
2 46342  53.0519 237.6328 0001391 101.3958 258.7188 15.06403810164116
STARLINK-1764           
1 46343U 20062U   23233.39618092  .00002984  00000+0  21909-3 0  9997
2 46343  53.0537 217.3582 0001427  90.9139 269.2013 15.06405040164401
STARLINK-1765           
1 46344U 20062V   23233.34826588  .00008393  00000+0  58157-3 0  9999
2 46344  53.0531 217.5685 0001131  88.6176 271.4942 15.06404697164378
STARLINK-1767           
1 46345U 20062W   23233.28281341  .00000304  00000+0  39300-4 0  9999
2 46345  53.0538 237.8540 0001295  86.6648 273.4490 15.06407300164109
STARLINK-1547           
1 46347U 20062Y   23233.10914110  .00008407  00000+0  58250-3 0  9995
2 46347  53.0534 193.6421 0001485  89.6591 270.4568 15.06405175164702
STARLINK-1553           
1 46348U 20062Z   23233.15290735  .00000458  00000+0  49658-4 0  9992
2 46348  53.0538 218.4510 0001064  71.9576 288.1528 15.06400618164363
STARLINK-1575           
1 46349U 20062AA  23233.08333612  .00003726  00000+0  26894-3 0  9994
2 46349  53.0532 193.7599 0001319 103.9732 256.1403 15.06389782164706
STARLINK-1617           
1 46350U 20062AB  23233.44595635  .00006199  00000+0  43457-3 0  9992
2 46350  53.0523 237.1354 0001632  78.5726 281.5446 15.06410048164134
STARLINK-1646           
1 46351U 20062AC  23233.31782265  .00001574  00000+0  12448-3 0  9994
2 46351  53.0534 217.6997 0001461  92.7379 267.3777 15.06410749164390
STARLINK-1653           
1 46352U 20062AD  23233.36668691  .00000605  00000+0  59497-4 0  9996
2 46352  53.0551 217.4869 0001621 103.4693 256.6476 15.06411678164404
STARLINK-1656           
1 46353U 20062AE  23233.43119755  .00001191  00000+0  98802-4 0  9991
2 46353  53.0538 237.2001 0001207  84.0584 276.0543 15.06404857164122
STARLINK-1657           
1 46354U 20062AF  23233.02206438  .00002473  00000+0  18488-3 0  9997
2 46354  53.0540 239.0327 0001738 119.2248 240.8915 15.06400843164060
STARLINK-1661           
1 46355U 20062AG  23233.39434393  .00007196  00000+0  50145-3 0  9994
2 46355  53.0529 237.3661 0001000  91.4251 268.6853 15.06403213164127
STARLINK-1665           
1 46356U 20062AH  23233.33811993 -.00001320  00000+0 -69713-4 0  9991
2 46356  53.0543 237.6105 0001494 120.7614 239.3522 15.06394314164114
STARLINK-1666           
1 46357U 20062AJ  23233.46989780  .00001014  00000+0  86920-4 0  9993
2 46357  53.0536 217.0270 0001426  93.6341 266.4811 15.06405353164413
STARLINK-1690           
1 46358U 20062AK  23232.52077573  .00001677  00000+0  13147-3 0  9993
2 46358  53.0531 241.2864 0001408  98.9903 261.1246 15.06397557163991
STARLINK-1707           
1 46359U 20062AL  23232.16922354  .00000937  00000+0  81764-4 0  9999
2 46359  53.0542 197.8632 0001506  87.3117 272.8044 15.06401355164562
STARLINK-1713           
1 46360U 20062AM  23233.05384991 -.00002900  00000+0 -17588-3 0  9995
2 46360  53.0538 193.8907 0001228  94.4117 265.7012 15.06401782164706
STARLINK-1722           
1 46361U 20062AN  23233.08976771  .00007093  00000+0  49465-3 0  9997
2 46361  53.0527 193.7227 0001494  85.6305 274.4855 15.06394978164693
STARLINK-1726           
1 46362U 20062AP  23233.13494111  .00001469  00000+0  11754-3 0  9998
2 46362  53.0538 193.5273 0001361 108.5186 251.5951 15.06392777164711
STARLINK-1739           
1 46363U 20062AQ  23233.32566328  .00000946  00000+0  82410-4 0  9997
2 46363  53.0542 192.6641 0001332  95.0304 265.0837 15.06393408164711
STARLINK-1763           
1 46364U 20062AR  23233.12947469  .00007311  00000+0  50920-3 0  9998
2 46364  53.0535 174.0621 0001557  98.2974 261.8191 15.06399805164986
STARLINK-1550           
1 46365U 20062AS  23233.10545518  .00008724  00000+0  60376-3 0  9991
2 46365  53.0535 193.6596 0001403 100.1084 260.0063 15.06405739164680
STARLINK-1651           
1 46366U 20062AT  23233.09439579  .00011379  00000+0  78146-3 0  9993
2 46366  53.0546 193.7099 0001426  91.0860 269.0292 15.06403825164707
STARLINK-1658           
1 46368U 20062AV  23232.96029368  .00001197  00000+0  99239-4 0  9995
2 46368  53.0540 219.3076 0001532  93.4635 266.6529 15.06406359164348
STARLINK-1670           
1 46370U 20062AX  23233.38880453  .00002274  00000+0  17148-3 0  9990
2 46370  53.0527 217.3884 0001219  91.8639 268.2489 15.06408962164401
STARLINK-1688           
1 46371U 20062AY  23233.31507776 -.00000741  00000+0 -30835-4 0  9996
2 46371  53.0543 217.7214 0001345  91.5032 268.6111 15.06422631164398
STARLINK-1689           
1 46372U 20062AZ  23233.39065913  .00001709  00000+0  13356-3 0  9998
2 46372  53.0538 237.3832 0001486  88.3511 271.7648 15.06402966164129
STARLINK-1711           
1 46374U 20062BB  23233.07274522  .00000497  00000+0  52240-4 0  9992
2 46374  53.0540 168.8151 0001366  97.6509 262.4635 15.06391853165040
STARLINK-1724           
1 46375U 20062BC  23233.08702457  .00004634  00000+0  32984-3 0  9996
2 46375  53.0524 193.7458 0001481  94.6609 265.4549 15.06397343164705
STARLINK-1742           
1 46376U 20062BD  23233.03542001  .00000701  00000+0  65940-4 0  9999
2 46376  53.0535 193.9739 0001063  86.6383 273.4728 15.06392125164697
STARLINK-1758           
1 46380U 20062BH  23233.46621578  .00009958  00000+0  68625-3 0  9993
2 46380  53.0534 217.0399 0001370  96.2001 263.9144 15.06409679164415
STARLINK-1769           
1 46382U 20062BK  23233.18285754  .00008909  00000+0  61614-3 0  9992
2 46382  53.0537 193.3145 0001257  94.3467 265.7666 15.06404212164691
STARLINK-1770           
1 46383U 20062BL  23233.30219430  .00002253  00000+0  17008-3 0  9999
2 46383  53.0529 237.7789 0001400  91.7480 268.3669 15.06401380164107
STARLINK-1771           
1 46384U 20062BM  23233.17318181  .00001430  00000+0  11489-3 0  9991
2 46384  53.0540 238.3539 0001383  95.3040 264.8107 15.06406124164089
STARLINK-1644           
1 46532U 20070A   23232.50971736 -.00000255  00000+0  17689-5 0  9997
2 46532  53.0529  41.3355 0001318  99.9003 260.2135 15.06396171159025
STARLINK-1648           
1 46533U 20070B   23233.44963120  .00013251  00000+0  90668-3 0  9995
2 46533  53.0546  37.1178 0000356  41.3322 318.7693 15.06404793159160
STARLINK-1659           
1 46534U 20070C   23232.50234781  .00005926  00000+0  41642-3 0  9994
2 46534  53.0542  41.3703 0001078 338.4086  21.6857 15.06399224159026
STARLINK-1663           
1 46535U 20070D   23233.15476050  .00020473  00000+0  13893-2 0  9994
2 46535  53.0552  38.4428 0000942  69.4967 290.6123 15.06401143159115
STARLINK-1672           
1 46537U 20070F   23232.78247747  .00003079  00000+0  22552-3 0  9999
2 46537  53.0552  40.1127 0001232 102.5097 257.6030 15.06391363158750
STARLINK-1678           
1 46538U 20070G   23233.42383081  .00012344  00000+0  84602-3 0  9993
2 46538  53.0543  37.2343 0001043  76.7809 283.3296 15.06405014158840
STARLINK-1687           
1 46541U 20070K   23233.40355238  .00001887  00000+0  14549-3 0  9991
2 46541  53.0542  17.3230 0000894  88.8950 271.2142 15.06407516159410
STARLINK-1692           
1 46542U 20070L   23232.74193442 -.00000308  00000+0 -18140-5 0  9997
2 46542  53.0570  40.3005 0001214  68.1616 291.9502 15.06395067159051
STARLINK-1693           
1 46543U 20070M   23232.72718961  .00013792  00000+0  94324-3 0  9990
2 46543  53.0542  40.3600 0000469 126.2664 233.8368 15.06388931159059
STARLINK-1694           
1 46544U 20070N   23233.12112577  .00022597  00000+0  15310-2 0  9997
2 46544  53.0558  23.5917 0001175  76.9401 283.1719 15.06400687159316
STARLINK-1696           
1 46545U 20070P   23232.76404702  .00005107  00000+0  36158-3 0  9993
2 46545  53.0536  40.1935 0001135  85.5541 274.5578 15.06392986159044
STARLINK-1697           
1 46546U 20070Q   23232.74930699  .00021457  00000+0  14556-2 0  9994
2 46546  53.0553  40.2623 0001107  70.0668 290.0440 15.06384844158748
STARLINK-1698           
1 46547U 20070R   23232.71149915  .00002542  00000+0  18951-3 0  9993
2 46547  53.0535  40.4211 0000522 352.8861   7.2120 15.06390562159052
STARLINK-1699           
1 46548U 20070S   23232.72349946 -.00001148  00000+0 -58231-4 0  9990
2 46548  53.0546  40.3789 0000901  69.9133 290.1953 15.06394736159057
STARLINK-1700           
1 46549U 20070T   23233.15106852  .00002233  00000+0  16873-3 0  9995
2 46549  53.0552  38.4545 0001134  89.0997 271.0122 15.06402426158807
STARLINK-1701           
1 46550U 20070U   23233.26902245  .00004240  00000+0  30336-3 0  9999
2 46550  53.0548  37.9294 0001176  97.8539 262.2583 15.06399804159139
STARLINK-1664           
1 46553U 20070X   23233.52242776  .00024932  00000+0  16853-2 0  9994
2 46553  53.0554   6.7996 0001380  71.2885 288.8254 15.06432528159588
STARLINK-1671           
1 46554U 20070Y   23233.44179902  .00011821  00000+0  81090-3 0  9995
2 46554  53.0555  22.1495 0001093  79.2105 280.9007 15.06410900159365
STARLINK-1676           
1 46556U 20070AA  23233.50123704  .00015617  00000+0  10648-2 0  9990
2 46556  53.0531  36.8814 0001214  82.6321 277.4806 15.06407455159179
STARLINK-1679           
1 46557U 20070AB  23232.74885321 -.00000934  00000+0 -43860-4 0  9998
2 46557  53.0557  25.2593 0000975 112.1818 247.9275 15.06378443159263
STARLINK-1680           
1 46558U 20070AC  23232.68987108  .00015975  00000+0  10892-2 0  9994
2 46558  53.0548  25.5239 0000706  90.6733 269.4336 15.06389074159250
STARLINK-1681           
1 46559U 20070AD  23233.53990036  .00002566  00000+0  19099-3 0  9995
2 46559  53.0556   6.7017 0001080  77.7728 282.3382 15.06414369159588
